{"type": "FeatureCollection", "features": [{"type": "Feature", "properties": {"norad_id": 66315, "name": "SENTINEL-1D", "group": "last-30-days", "lat": -35.075396852094826, "lon": -10.157901067833016, "alt_km": 701.5830324418257, "timestamp": "2025-12-04T21:36:14.650179+00:00", "meta": {"OBJECT_NAME": "SENTINEL-1D", "OBJECT_ID": "2025-251A", "EPOCH": "2025-12-03T14:30:47.068416", "MEAN_MOTION": 14.5991103, "ECCENTRICITY": 0.00026458, "INCLINATION": 98.1924, "RA_OF_ASC_NODE": 342.7567, "ARG_OF_PERICENTER": 152.8376, "MEAN_ANOMALY": 207.2963, "EPHEMERIS_TYPE": 0, "CLASSIFICATION_TYPE": "U", "NORAD_CAT_ID": 66315, "ELEMENT_SET_NO": 999, "REV_AT_EPOCH": 420, "BSTAR": 8.0054337e-05, "MEAN_MOTION_DOT": 3.37e-06, "MEAN_MOTION_DDOT": 0}, "tle": {"line1": "1 66315U 25251A   25337.60471144  .00000337  00000+0  80054-4 0  9996", "line2": "2 66315  98.1924 342.7567 0002645 152.8376 207.2963 14.59911030  4207"}}, "geometry": {"type": "Point", "coordinates": [-10.157901067833016, -35.075396852094826]}}, {"type": "Feature", "properties": {"norad_id": 66316, "name": "QPS-SAR-14 (YACHIHOKO-I)", "group": "last-30-days", "lat": -0.8146218865096859, "lon": -60.72451895817594, "alt_km": 573.6527007591449, "timestamp": "2025-12-04T21:36:14.650236+00:00", "meta": {"OBJECT_NAME": "QPS-SAR-14 (YACHIHOKO-I)", "OBJECT_ID": "2025-252A", "EPOCH": "2025-12-04T15:59:51.960768", "MEAN_MOTION": 14.97574412, "ECCENTRICITY": 0.00068451, "INCLINATION": 42.0036, "RA_OF_ASC_NODE": 119.6506, "ARG_OF_PERICENTER": 95.5659, "MEAN_ANOMALY": 264.5947, "EPHEMERIS_TYPE": 0, "CLASSIFICATION_TYPE": "U", "NORAD_CAT_ID": 66316, "ELEMENT_SET_NO": 999, "REV_AT_EPOCH": 432, "BSTAR": 0.0011221691, "MEAN_MOTION_DOT": 0.00013169, "MEAN_MOTION_DDOT": 0}, "tle": {"line1": "1 66316U 25252A   25338.66657362  .00013169  00000+0  11222-2 0  9999", "line2": "2 66316  42.0036 119.6506 0006845  95.5659 264.5947 14.97574412  4329"}}, "geometry": {"type": "Point", "coordinates": [-60.72451895817594, -0.8146218865096859]}}, {"type": "Feature", "properties": {"norad_id": 66317, "name": "ELECTRON R/B", "group": "last-30-days", "lat": -35.98321029361977, "lon": -28.376187736791493, "alt_km": 262.468447686585, "timestamp": "2025-12-04T21:36:14.650254+00:00", "meta": {"OBJECT_NAME": "ELECTRON R/B", "OBJECT_ID": "2025-252B", "EPOCH": "2025-12-03T17:54:17.702208", "MEAN_MOTION": 16.11372677, "ECCENTRICITY": 0.00810811, "INCLINATION": 41.986, "RA_OF_ASC_NODE": 105.3311, "ARG_OF_PERICENTER": 73.5218, "MEAN_ANOMALY": 287.4538, "EPHEMERIS_TYPE": 0, "CLASSIFICATION_TYPE": "U", "NORAD_CAT_ID": 66317, "ELEMENT_SET_NO": 999, "REV_AT_EPOCH": 440, "BSTAR": 0.0017947301, "MEAN_MOTION_DOT": 0.03381088, "MEAN_MOTION_DDOT": 8.186283e-06}, "tle": {"line1": "1 66317U 25252B   25337.74603822  .03381088  81863-5  17947-2 0  9993", "line2": "2 66317  41.9860 105.3311 0081081  73.5218 287.4538 16.11372677  4407"}}, "geometry": {"type": "Point", "coordinates": [-28.376187736791493, -35.98321029361977]}}, {"type": "Feature", "properties": {"norad_id": 66319, "name": "STARLINK-35442", "group": "last-30-days", "lat": -38.73416706989324, "lon": -89.55065139602289, "alt_km": 446.081934830092, "timestamp": "2025-12-04T21:36:14.650281+00:00", "meta": {"OBJECT_NAME": "STARLINK-35442", "OBJECT_ID": "2025-253A", "EPOCH": "2025-12-04T11:12:12.628512", "MEAN_MOTION": 15.40680264, "ECCENTRICITY": 0.00016361, "INCLINATION": 43.0027, "RA_OF_ASC_NODE": 33.5509, "ARG_OF_PERICENTER": 271.7121, "MEAN_ANOMALY": 88.3548, "EPHEMERIS_TYPE": 0, "CLASSIFICATION_TYPE": "U", "NORAD_CAT_ID": 66319, "ELEMENT_SET_NO": 999, "REV_AT_EPOCH": 564, "BSTAR": 0.0021249623, "MEAN_MOTION_DOT": 0.0008945, "MEAN_MOTION_DDOT": 0}, "tle": {"line1": "1 66319U 25253A   25338.46681283  .00089450  00000+0  21250-2 0  9998", "line2": "2 66319  43.0027  33.5509 0001636 271.7121  88.3548 15.40680264  5642"}}, "geometry": {"type": "Point", "coordinates": [-89.55065139602289, -38.73416706989324]}}, {"type": "Feature", "properties": {"norad_id": 66320, "name": "STARLINK-34616", "group": "last-30-days", "lat": 35.19771949279693, "lon": 79.8329847422637, "alt_km": 431.12458623394195, "timestamp": "2025-12-04T21:36:14.650322+00:00", "meta": {"OBJECT_NAME": "STARLINK-34616", "OBJECT_ID": "2025-253B", "EPOCH": "2025-12-04T14:00:01.000224", "MEAN_MOTION": 15.44811626, "ECCENTRICITY": 0.00013459, "INCLINATION": 43.0014, "RA_OF_ASC_NODE": 32.476, "ARG_OF_PERICENTER": 288.3984, "MEAN_ANOMALY": 166.0862, "EPHEMERIS_TYPE": 0, "CLASSIFICATION_TYPE": "U", "NORAD_CAT_ID": 66320, "ELEMENT_SET_NO": 999, "REV_AT_EPOCH": 582, "BSTAR": -0.046790628, "MEAN_MOTION_DOT": -0.02001459, "MEAN_MOTION_DDOT": 0}, "tle": {"line1": "1 66320U 25253B   25338.58334491 -.02001459  00000+0 -46791-1 0  9992", "line2": "2 66320  43.0014  32.4760 0001345 288.3984 166.0862 15.44811626  5820"}}, "geometry": {"type": "Point", "coordinates": [79.8329847422637, 35.19771949279693]}}, {"type": "Feature", "properties": {"norad_id": 66321, "name": "STARLINK-34615", "group": "last-30-days", "lat": 29.693135923355825, "lon": 67.51499578772288, "alt_km": 410.80691043452316, "timestamp": "2025-12-04T21:36:14.650337+00:00", "meta": {"OBJECT_NAME": "STARLINK-34615", "OBJECT_ID": "2025-253C", "EPOCH": "2025-12-04T14:00:01.000224", "MEAN_MOTION": 15.50577302, "ECCENTRICITY": 0.00015627, "INCLINATION": 43.0002, "RA_OF_ASC_NODE": 31.6393, "ARG_OF_PERICENTER": 289.5114, "MEAN_ANOMALY": 146.4793, "EPHEMERIS_TYPE": 0, "CLASSIFICATION_TYPE": "U", "NORAD_CAT_ID": 66321, "ELEMENT_SET_NO": 999, "REV_AT_EPOCH": 566, "BSTAR": -0.00038989433, "MEAN_MOTION_DOT": -0.00023146, "MEAN_MOTION_DDOT": 0}, "tle": {"line1": "1 66321U 25253C   25338.58334491 -.00023146  00000+0 -38989-3 0  9990", "line2": "2 66321  43.0002  31.6393 0001562 289.5114 146.4793 15.50577302  5664"}}, "geometry": {"type": "Point", "coordinates": [67.51499578772288, 29.693135923355825]}}, {"type": "Feature", "properties": {"norad_id": 66322, "name": "STARLINK-35292", "group": "last-30-days", "lat": -41.429795731428044, "lon": -40.30968917426965, "alt_km": 446.5375768924778, "timestamp": "2025-12-04T21:36:14.650349+00:00", "meta": {"OBJECT_NAME": "STARLINK-35292", "OBJECT_ID": "2025-253D", "EPOCH": "2025-12-04T14:00:01.000224", "MEAN_MOTION": 15.40702534, "ECCENTRICITY": 0.00016414, "INCLINATION": 43.0007, "RA_OF_ASC_NODE": 32.7895, "ARG_OF_PERICENTER": 269.5668, "MEAN_ANOMALY": 55.0705, "EPHEMERIS_TYPE": 0, "CLASSIFICATION_TYPE": "U", "NORAD_CAT_ID": 66322, "ELEMENT_SET_NO": 999, "REV_AT_EPOCH": 561, "BSTAR": -0.0036875485, "MEAN_MOTION_DOT": -0.00151343, "MEAN_MOTION_DDOT": 0}, "tle": {"line1": "1 66322U 25253D   25338.58334491 -.00151343  00000+0 -36875-2 0  9993", "line2": "2 66322  43.0007  32.7895 0001641 269.5668  55.0705 15.40702534  5618"}}, "geometry": {"type": "Point", "coordinates": [-40.30968917426965, -41.429795731428044]}}, {"type": "Feature", "properties": {"norad_id": 66323, "name": "STARLINK-35309", "group": "last-30-days", "lat": 42.84874025490463, "lon": 126.04442469297005, "alt_km": 409.90508097698967, "timestamp": "2025-12-04T21:36:14.650360+00:00", "meta": {"OBJECT_NAME": "STARLINK-35309", "OBJECT_ID": "2025-253E", "EPOCH": "2025-12-04T11:55:34.293216", "MEAN_MOTION": 15.50737349, "ECCENTRICITY": 0.00037961, "INCLINATION": 43.0008, "RA_OF_ASC_NODE": 32.9093, "ARG_OF_PERICENTER": 268.5168, "MEAN_ANOMALY": 91.5257, "EPHEMERIS_TYPE": 0, "CLASSIFICATION_TYPE": "U", "NORAD_CAT_ID": 66323, "ELEMENT_SET_NO": 999, "REV_AT_EPOCH": 565, "BSTAR": 0.0030260945, "MEAN_MOTION_DOT": 0.00182433, "MEAN_MOTION_DDOT": 0}, "tle": {"line1": "1 66323U 25253E   25338.49692469  .00182433  00000+0  30261-2 0  9991", "line2": "2 66323  43.0008  32.9093 0003796 268.5168  91.5257 15.50737349  5653"}}, "geometry": {"type": "Point", "coordinates": [126.04442469297005, 42.84874025490463]}}, {"type": "Feature", "properties": {"norad_id": 66324, "name": "STARLINK-35506", "group": "last-30-days", "lat": 42.863215533782, "lon": 115.38436650024721, "alt_km": 408.5299457407218, "timestamp": "2025-12-04T21:36:14.650371+00:00", "meta": {"OBJECT_NAME": "STARLINK-35506", "OBJECT_ID": "2025-253F", "EPOCH": "2025-12-03T12:46:12.432576", "MEAN_MOTION": 15.5059009, "ECCENTRICITY": 8.705e-05, "INCLINATION": 43.0006, "RA_OF_ASC_NODE": 38.5692, "ARG_OF_PERICENTER": 276.2742, "MEAN_ANOMALY": 83.8019, "EPHEMERIS_TYPE": 0, "CLASSIFICATION_TYPE": "U", "NORAD_CAT_ID": 66324, "ELEMENT_SET_NO": 999, "REV_AT_EPOCH": 550, "BSTAR": 0.00045167229, "MEAN_MOTION_DOT": 0.00026255, "MEAN_MOTION_DDOT": 0}, "tle": {"line1": "1 66324U 25253F   25337.53208834  .00026255  00000+0  45167-3 0  9996", "line2": "2 66324  43.0006  38.5692 0000870 276.2742  83.8019 15.50590090  5507"}}, "geometry": {"type": "Point", "coordinates": [115.38436650024721, 42.863215533782]}}, {"type": "Feature", "properties": {"norad_id": 66325, "name": "STARLINK-35504", "group": "last-30-days", "lat": 7.4027751407184725, "lon": 38.76752064960981, "alt_km": 443.10793789014406, "timestamp": "2025-12-04T21:36:14.650385+00:00", "meta": {"OBJECT_NAME": "STARLINK-35504", "OBJECT_ID": "2025-253G", "EPOCH": "2025-12-04T14:00:01.000224", "MEAN_MOTION": 15.40624004, "ECCENTRICITY": 0.00010952, "INCLINATION": 43.0004, "RA_OF_ASC_NODE": 32.5789, "ARG_OF_PERICENTER": 259.0714, "MEAN_ANOMALY": 152.5867, "EPHEMERIS_TYPE": 0, "CLASSIFICATION_TYPE": "U", "NORAD_CAT_ID": 66325, "ELEMENT_SET_NO": 999, "REV_AT_EPOCH": 561, "BSTAR": 0.0020831262, "MEAN_MOTION_DOT": 0.00087496, "MEAN_MOTION_DDOT": 0}, "tle": {"line1": "1 66325U 25253G   25338.58334491  .00087496  00000+0  20831-2 0  9996", "line2": "2 66325  43.0004  32.5789 0001095 259.0714 152.5867 15.40624004  5614"}}, "geometry": {"type": "Point", "coordinates": [38.76752064960981, 7.4027751407184725]}}]}